FLOCK 4V-22             
1 46735U 20061BL  23073.90947743  .00027360  00000+0  98833-3 0  9993
2 46735  97.3544 144.9405 0005346 259.3513 100.7057 15.28430221132927
FLOCK 4V-23             
1 46737U 20061BM  23073.66207878  .00024816  00000+0  91345-3 0  9990
2 46737  97.3596 145.3870 0003353 207.7495 152.3566 15.27839168132817
FLOCK 4V-24             
1 46738U 20061BN  23074.14973311  .00070044  00000+0  21871-2 0  9997
2 46738  97.3676 147.1686 0004359 248.5320 111.5455 15.32920135132487
FLOCK 4V-25             
1 46812U 20061BP  23074.17609477  .00083568  00000+0  26079-2 0  9992
2 46812  97.3554 146.3039 0004428 243.9556 116.1200 15.32875311132131
FLOCK 4E'-1             
1 46813U 20077A   23074.12041791  .00037660  00000+0  11433-2 0  9994
2 46813  97.3809 139.2339 0009427 178.1497 181.9782 15.33948357131750
FLOCK 4E'-7             
1 46814U 20077B   23074.52815593  .00066400  00000+0  20026-2 0  9990
2 46814  97.3818 139.7839 0009580 169.3827 190.7619 15.34008197131825
FLOCK 4E'-9             
1 46815U 20077C   23074.44723385  .00023897  00000+0  95430-3 0  9994
2 46815  97.3801 137.5826 0010948 170.8740 189.2699 15.25086958131698
FLOCK 4E'-8             
1 46816U 20077D   23074.47070169  .00049146  00000+0  14263-2 0  9992
2 46816  97.3841 141.1166 0008509 148.4699 211.7056 15.35316895131892
FLOCK 4E'-5             
1 46817U 20077E   23074.49719360  .00072137  00000+0  21499-2 0  9993
2 46817  97.3835 140.5195 0010930 155.6647 204.5114 15.34344900131853
FLOCK 4E'-3             
1 46819U 20077G   23074.48087057  .00068585  00000+0  20771-2 0  9999
2 46819  97.3809 140.2582 0011638 150.7467 209.4430 15.33845060131852
FLOCK 4E'-2             
1 46820U 20077H   23074.44627406  .00027277  00000+0  95778-3 0  9998
2 46820  97.3882 140.4743 0012284 144.1059 216.1009 15.29302623131820
FLOCK 4E'-4             
1 46821U 20077J   23074.47041341  .00026806  00000+0  10145-2 0  9991
2 46821  97.3850 139.3893 0013277 141.4076 218.8114 15.26826648131743
FLOCK 4E'-6             
1 46822U 20077K   23073.93191732  .00026738  00000+0  10372-2 0  9998
2 46822  97.3782 137.6953 0010595 156.6213 203.5466 15.26036754131660
FLOCK 4V-26             
1 46825U 20061BQ  23074.18237580  .00028125  00000+0  96021-3 0  9992
2 46825  97.3723 147.0868 0003597 279.7604  80.3226 15.30276551131675
FLOCK 4S-22             
1 47452U 21006AR  23074.11369524  .00053822  00000+0  21424-2 0  9992
2 47452  97.4044 133.8939 0009448  57.2763 302.9384 15.25020952118362
FLOCK 4S-21             
1 47456U 21006AV  23074.38009690  .00028303  00000+0  11335-2 0  9996
2 47456  97.4061 134.2214 0009622  58.1220 302.0953 15.24968818118407
FLOCK 4S-11             
1 47462U 21006BB  23073.62109629  .00014448  00000+0  72910-3 0  9994
2 47462  97.4020 130.2515 0008896  86.7254 273.4997 15.17185029118108
FLOCK 4S-33             
1 47469U 21006BJ  23073.61647337  .00021076  00000+0  83667-3 0  9999
2 47469  97.3999 132.6503 0005962  78.1399 282.0507 15.25351324118260
FLOCK 4S-12             
1 47471U 21006BL  23074.46747598  .00021433  00000+0  85695-3 0  9996
2 47471  97.4035 133.8214 0006874  77.2239 282.9766 15.25102502118395
FLOCK 4S-13             
1 47472U 21006BM  23074.12496782  .00077360  00000+0  30640-2 0  9995
2 47472  97.4060 133.7792 0006141  75.0127 285.1790 15.25092542118342
FLOCK 4S-35             
1 47473U 21006BN  23074.12407248  .00114680  00000+0  32271-2 0  9994
2 47473  97.4000 135.1193 0003058  87.9796 272.1797 15.36016241118444
FLOCK 4S-8              
1 47474U 21006BP  23074.15671238  .00086983  00000+0  32268-2 0  9990
2 47474  97.3977 132.1778 0005561  87.5309 272.6566 15.27230343118293
FLOCK 4S-31             
1 47475U 21006BQ  23074.15755230  .00071051  00000+0  24754-2 0  9997
2 47475  97.3973 133.5582 0006788  73.3750 286.8235 15.29363626118386
FLOCK 4S-34             
1 47477U 21006BS  23074.13434100  .00019852  00000+0  80132-3 0  9991
2 47477  97.4048 133.6138 0006781  72.6052 287.5927 15.24800057118341
FLOCK 4S-9              
1 47478U 21006BT  23073.60643223  .00033336  00000+0  13320-2 0  9998
2 47478  97.3999 132.5331 0007072  80.1790 280.0246 15.25030798118267
FLOCK 4S-32             
1 47479U 21006BU  23074.14832548  .00140509  00000+0  37329-2 0  9995
2 47479  97.3944 134.8062 0002419  84.7692 275.3828 15.37701019118464
FLOCK 4S-39             
1 47490U 21006CF  23074.09535763  .00019849  00000+0  79421-3 0  9993
2 47490  97.4087 134.1769 0008605  61.3400 298.8702 15.25080847118359
FLOCK 4S-4              
1 47491U 21006CG  23073.89372397  .00020950  00000+0  84122-3 0  9992
2 47491  97.3957 132.7728 0008656  59.7451 300.4643 15.24951308118326
FLOCK 4S-17             
1 47492U 21006CH  23074.15447036  .00020981  00000+0  84471-3 0  9997
2 47492  97.4104 134.3313 0009139  62.2592 297.9572 15.24858040118366
FLOCK 4S-3              
1 47494U 21006CK  23074.13292570  .00091237  00000+0  33134-2 0  9999
2 47494  97.3954 132.4107 0006382  64.1112 296.0785 15.27908445118315
FLOCK 4S-27             
1 47495U 21006CL  23074.12319671  .00019586  00000+0  83801-3 0  9995
2 47495  97.3973 132.9999 0010017  60.3896 299.8338 15.22809142118356
FLOCK 4S-18             
1 47496U 21006CM  23074.14889270  .00055329  00000+0  21956-2 0  9992
2 47496  97.4078 134.1868 0009039  63.2213 296.9949 15.25120248118363
FLOCK 4S-2              
1 47498U 21006CP  23074.15559523  .00111777  00000+0  35119-2 0  9996
2 47498  97.3953 133.7687 0005056  61.4552 298.7198 15.32529895118401
FLOCK 4S-40             
1 47499U 21006CQ  23074.12396705  .00036839  00000+0  15117-2 0  9996
2 47499  97.4113 134.0991 0009112  63.6850 296.5322 15.24097737118350
FLOCK 4S-19             
1 47500U 21006CR  23074.40038923  .00021427  00000+0  85830-3 0  9992
2 47500  97.4074 134.4380 0009512  58.6291 301.5876 15.25021284118404
FLOCK 4S-28             
1 47514U 21006DE  23074.16121456  .00021420  00000+0  85294-3 0  9991
2 47514  97.3957 132.9061 0007541  72.8678 287.3385 15.25235897119318
FLOCK 4S-5              
1 47515U 21006DF  23074.16018360  .00020784  00000+0  83324-3 0  9995
2 47515  97.3961 132.8359 0008019  73.5824 286.6295 15.25011103118352
FLOCK 4S-16             
1 47516U 21006DG  23074.15267714  .00103149  00000+0  34181-2 0  9997
2 47516  97.4061 134.3636 0004892  75.0018 285.1764 15.30853567119335
FLOCK 4S-6              
1 47518U 21006DJ  23074.10461881  .00020543  00000+0  82460-3 0  9995
2 47518  97.3976 132.8979 0007790  73.7115 286.4979 15.24973602119313
FLOCK 4S-29             
1 47520U 21006DL  23074.10246748  .00022241  00000+0  89172-3 0  9995
2 47520  97.3987 132.9601 0007177  72.7767 287.4256 15.24999678118344
FLOCK 4S-15             
1 47521U 21006DM  23074.13830002  .00087441  00000+0  31694-2 0  9999
2 47521  97.4073 133.4803 0005490  87.5268 272.6600 15.27994533119289
FLOCK 4S-37             
1 47522U 21006DN  23073.12518475  .00017910  00000+0  72268-3 0  9992
2 47522  97.4071 132.8647 0007423  77.5732 282.6336 15.24828790119162
FLOCK 4S-10             
1 47523U 21006DP  23074.41143117  .00022072  00000+0  88541-3 0  9999
2 47523  97.4008 133.3904 0007645  77.0816 283.1275 15.24980937118382
FLOCK 4S-7              
1 47527U 21006DT  23074.11268819  .00035329  00000+0  14086-2 0  9998
2 47527  97.3972 132.8840 0007559  73.8968 286.3102 15.25086381119302
FLOCK 4S-14             
1 47528U 21006DU  23073.13513151  .00019247  00000+0  77315-3 0  9998
2 47528  97.4072 132.8835 0007522  78.8513 281.3570 15.24963913119151
FLOCK 4S-36             
1 47530U 21006DW  23074.12120185  .00060910  00000+0  24230-2 0  9992
2 47530  97.4058 133.7535 0006956  73.3723 286.8278 15.25023948119306
FLOCK 4S-24             
1 47539U 21006DZ  23074.12635058  .00053497  00000+0  21390-2 0  9997
2 47539  97.4004 133.5107 0009690  49.6429 310.5653 15.24870714118363
FLOCK 4S-20             
1 47540U 21006EA  23074.12447363  .00059565  00000+0  23620-2 0  9999
2 47540  97.4066 134.0798 0009019  59.6620 300.5509 15.25122295117435
FLOCK 4S-25             
1 47542U 21006EC  23074.12976186  .00067068  00000+0  26560-2 0  9994
2 47542  97.3981 133.2960 0008662  57.9993 302.2085 15.25131654117438
FLOCK 4S-1              
1 47543U 21006ED  23074.12787101  .00072396  00000+0  28508-2 0  9996
2 47543  97.3987 133.2927 0008096  51.2821 308.9139 15.25299405117438
FLOCK 4S-30             
1 47544U 21006EE  23074.10903250  .00027016  00000+0  10819-2 0  9995
2 47544  97.3982 133.0091 0006921  73.4631 286.7367 15.25000962119306
FLOCK 4S-23             
1 47545U 21006EF  23074.16306330  .00103529  00000+0  34445-2 0  9993
2 47545  97.4004 134.0194 0006516  60.6363 299.5528 15.30713920119366
FLOCK 4S-42             
1 47612U 21006EQ  23074.16875883  .00021869  00000+0  87855-3 0  9992
2 47612  97.4043 133.8216 0009797  71.0154 289.2145 15.24916376118367
FLOCK 4S-48             
1 47617U 21006EJ  23074.13952274  .00057950  00000+0  23015-2 0  9991
2 47617  97.4038 133.8953 0009992  51.3697 308.8434 15.25070446119342
FLOCK 4S-46             
1 47684U 21006EK  23074.15707719  .00021787  00000+0  87423-3 0  9992
2 47684  97.4040 133.8502 0007516  84.3727 275.8367 15.24974815118371
FLOCK 4S-47             
1 47685U 21006EL  23074.08712499  .00028158  00000+0  11332-2 0  9990
2 47685  97.4007 133.1628 0006060  83.3526 276.8402 15.24832694118331
FLOCK 4S-44             
1 47686U 21006EM  23074.40501963  .00021257  00000+0  84790-3 0  9991
2 47686  97.4051 134.2023 0009613  67.0357 293.1894 15.25163109118404
FLOCK 4S-43             
1 47687U 21006EN  23073.13952306  .00016431  00000+0  66455-3 0  9998
2 47687  97.4021 132.4299 0005526  67.4823 292.6999 15.24781833119161
FLOCK 4S-45             
1 47688U 21006EP  23074.14729308  .00034325  00000+0  13633-2 0  9996
2 47688  97.4033 133.3597 0009122  51.7152 308.4905 15.25209932119308
FLOCK 4S-41             
1 47698U 21006ER  23073.90479418  .00020807  00000+0  83432-3 0  9999
2 47698  97.4093 133.8598 0008986  66.2882 293.9298 15.24997905118315
